{
    "links": {
        "self": "http://www.neowsapp.com/rest/v1/neo/3410213?api_key=iIulBulltgU6a56xZRHN4H3l9WmuAYTsLGpBGhQ2"
    },
    "id": "3410213",
    "neo_reference_id": "3410213",
    "name": "(2008 JL3)",
    "designation": "2008 JL3",
    "nasa_jpl_url": "http://ssd.jpl.nasa.gov/sbdb.cgi?sstr=3410213",
    "absolute_magnitude_h": 25.3,
    "estimated_diameter": {
        "kilometers": {
            "estimated_diameter_min": 0.0231502122,
            "estimated_diameter_max": 0.0517654482
        },
        "meters": {
            "estimated_diameter_min": 23.150212221,
            "estimated_diameter_max": 51.7654482198
        },
        "miles": {
            "estimated_diameter_min": 0.0143848705,
            "estimated_diameter_max": 0.0321655483
        },
        "feet": {
            "estimated_diameter_min": 75.9521422633,
            "estimated_diameter_max": 169.8341531374
        }
    },
    "is_potentially_hazardous_asteroid": false,
    "close_approach_data": [
        {
            "close_approach_date": "2008-04-30",
            "close_approach_date_full": "2008-Apr-30 20:56",
            "epoch_date_close_approach": 1209588960000,
            "relative_velocity": {
                "kilometers_per_second": "8.3853373018",
                "kilometers_per_hour": "30187.2142865924",
                "miles_per_hour": "18757.1610104663"
            },
            "miss_distance": {
                "astronomical": "0.0131553702",
                "lunar": "5.1174390078",
                "kilometers": "1968015.360981474",
                "miles": "1222868.0401693812"
            },
            "orbiting_body": "Earth"
        }
    ],
    "orbital_data": {
        "orbit_id": "11",
        "orbit_determination_date": "2019-10-10 08:54:31",
        "first_observation_date": "2008-05-02",
        "last_observation_date": "2008-05-09",
        "data_arc_in_days": 7,
        "observations_used": 35,
        "orbit_uncertainty": "7",
        "minimum_orbit_intersection": ".0011131",
        "jupiter_tisserand_invariant": "3.492",
        "epoch_osculation": "2459000.5",
        "eccentricity": ".5436672241228007",
        "semi_major_axis": "2.15768012756123",
        "inclination": ".8973915659140844",
        "ascending_node_longitude": "40.26653846848598",
        "orbital_period": "1157.654646943155",
        "perihelion_distance": ".9846201620650857",
        "perihelion_argument": "155.5625512598706",
        "aphelion_distance": "3.330740093057374",
        "perihelion_time": "2459196.341265873976",
        "mean_anomaly": "299.0985421249786",
        "mean_motion": ".3109735713933322",
        "equinox": "J2000",
        "orbit_class": {
            "orbit_class_type": "APO",
            "orbit_class_description": "Near-Earth asteroid orbits which cross the Earth’s orbit similar to that of 1862 Apollo",
            "orbit_class_range": "a (semi-major axis) > 1.0 AU; q (perihelion) < 1.017 AU"
        }
    },
    "is_sentry_object": false
}